SL-16 R/B               
1 22566U 93016B   25354.47974957  .00000293  00000+0  17486-3 0  9993
2 22566  71.0080  21.5474 0008024  82.4968 277.7066 14.15289411690964
COSMOS 2242             
1 22626U 93024A   25354.39398835  .00001523  00000+0  13277-3 0  9996
2 22626  82.5185 342.5282 0015463 206.5779 153.4652 14.96134690768538
SL-16 R/B               
1 22803U 93059B   25354.77847582  .00000093  00000+0  69679-4 0  9990
2 22803  70.9879 177.5343 0018372 324.3176  35.6718 14.17213385668357
ARIANE 40 R/B           
1 22830U 93061H   25354.09043524  .00000183  00000+0  83052-4 0  9993
2 22830  98.5067  59.4864 0011281 154.9598 205.2136 14.32805889682702
COSMOS 2278             
1 23087U 94023A   25354.38638984 -.00000162  00000+0 -59975-4 0  9995
2 23087  71.0534 341.0123 0007939 166.1794 193.9548 14.14348249633593
SL-16 R/B               
1 23088U 94023B   25354.68105013 -.00000230  00000+0 -93950-4 0  9998
2 23088  70.9989 236.8094 0001833   8.5818 351.5336 14.15001404634911
SL-16 R/B               
1 23343U 94074B   25354.59891097  .00000316  00000+0  49154-4 0  9992
2 23343  97.7193  23.5909 0007935 114.1966   0.3935 14.79297758675550
SL-16 R/B               
1 23405U 94077B   25354.48149366 -.00000036  00000+0  60085-5 0  9994
2 23405  70.9821 159.1278 0004978 280.0802  79.9759 14.15552977605029
ARIANE 40+ R/B          
1 23561U 95021B   25353.98620465  .00000219  00000+0  83887-4 0  9991
2 23561  98.4643  61.4875 0007128  30.0378 143.5506 14.39700550607778
SL-16 R/B               
1 23705U 95058B   25354.27255666 -.00000243  00000+0 -99671-4 0  9998
2 23705  71.0221 346.9893 0014874 245.6082 114.3489 14.15482952556619
SL-16 R/B               
1 24298U 96051B   25354.42069747 -.00000047  00000+0  11942-5 0  9997
2 24298  70.7595 343.0253 0019473 251.9483 107.9516 14.12397280510457
ORBVIEW 2 (SEASTAR)     
1 24883U 97037A   25354.44351821  .00000190  00000+0  82334-4 0  9991
2 24883  98.8461 151.7121 0001359 310.1600  49.9466 14.35422194497104
