CCSDS_OMM_VERS = 2.0
CREATION_DATE  = 
ORIGINATOR     = 

OBJECT_NAME    = SL-16 R/B
OBJECT_ID      = 1993-016B
CENTER_NAME    = EARTH
REF_FRAME      = TEME
TIME_SYSTEM    = UTC
MEAN_ELEMENT_THEORY = SGP/SGP4

EPOCH          = 2025-12-20T11:30:50.362848
MEAN_MOTION    = 14.15289411
ECCENTRICITY   = .00080243
INCLINATION    = 71.0080
RA_OF_ASC_NODE = 21.5474
ARG_OF_PERICENTER = 82.4968
MEAN_ANOMALY   = 277.7066

EPHEMERIS_TYPE = 0
CLASSIFICATION_TYPE = U
NORAD_CAT_ID   = 22566
ELEMENT_SET_NO = 999
REV_AT_EPOCH   = 69096
BSTAR          = .17486239E-3
MEAN_MOTION_DOT = .293E-5
MEAN_MOTION_DDOT = 0

CCSDS_OMM_VERS = 2.0
CREATION_DATE  = 
ORIGINATOR     = 

OBJECT_NAME    = COSMOS 2242
OBJECT_ID      = 1993-024A
CENTER_NAME    = EARTH
REF_FRAME      = TEME
TIME_SYSTEM    = UTC
MEAN_ELEMENT_THEORY = SGP/SGP4

EPOCH          = 2025-12-20T09:27:20.593440
MEAN_MOTION    = 14.96134690
ECCENTRICITY   = .00154637
INCLINATION    = 82.5185
RA_OF_ASC_NODE = 342.5282
ARG_OF_PERICENTER = 206.5779
MEAN_ANOMALY   = 153.4652

EPHEMERIS_TYPE = 0
CLASSIFICATION_TYPE = U
NORAD_CAT_ID   = 22626
ELEMENT_SET_NO = 999
REV_AT_EPOCH   = 76853
BSTAR          = .13276982E-3
MEAN_MOTION_DOT = .1523E-4
MEAN_MOTION_DDOT = 0

CCSDS_OMM_VERS = 2.0
CREATION_DATE  = 
ORIGINATOR     = 

OBJECT_NAME    = SL-16 R/B
OBJECT_ID      = 1993-059B
CENTER_NAME    = EARTH
REF_FRAME      = TEME
TIME_SYSTEM    = UTC
MEAN_ELEMENT_THEORY = SGP/SGP4

EPOCH          = 2025-12-20T18:41:00.310848
MEAN_MOTION    = 14.17213385
ECCENTRICITY   = .0018372
INCLINATION    = 70.9879
RA_OF_ASC_NODE = 177.5343
ARG_OF_PERICENTER = 324.3176
MEAN_ANOMALY   = 35.6718

EPHEMERIS_TYPE = 0
CLASSIFICATION_TYPE = U
NORAD_CAT_ID   = 22803
ELEMENT_SET_NO = 999
REV_AT_EPOCH   = 66835
BSTAR          = .69679E-4
MEAN_MOTION_DOT = .93E-6
MEAN_MOTION_DDOT = 0

CCSDS_OMM_VERS = 2.0
CREATION_DATE  = 
ORIGINATOR     = 

OBJECT_NAME    = ARIANE 40 R/B
OBJECT_ID      = 1993-061H
CENTER_NAME    = EARTH
REF_FRAME      = TEME
TIME_SYSTEM    = UTC
MEAN_ELEMENT_THEORY = SGP/SGP4

EPOCH          = 2025-12-20T02:10:13.604736
MEAN_MOTION    = 14.32805889
ECCENTRICITY   = .00112816
INCLINATION    = 98.5067
RA_OF_ASC_NODE = 59.4864
ARG_OF_PERICENTER = 154.9598
MEAN_ANOMALY   = 205.2136

EPHEMERIS_TYPE = 0
CLASSIFICATION_TYPE = U
NORAD_CAT_ID   = 22830
ELEMENT_SET_NO = 999
REV_AT_EPOCH   = 68270
BSTAR          = .83052169E-4
MEAN_MOTION_DOT = .183E-5
MEAN_MOTION_DDOT = 0

CCSDS_OMM_VERS = 2.0
CREATION_DATE  = 
ORIGINATOR     = 

OBJECT_NAME    = COSMOS 2278
OBJECT_ID      = 1994-023A
CENTER_NAME    = EARTH
REF_FRAME      = TEME
TIME_SYSTEM    = UTC
MEAN_ELEMENT_THEORY = SGP/SGP4

EPOCH          = 2025-12-20T09:16:24.082176
MEAN_MOTION    = 14.14348249
ECCENTRICITY   = .00079391
INCLINATION    = 71.0534
RA_OF_ASC_NODE = 341.0123
ARG_OF_PERICENTER = 166.1794
MEAN_ANOMALY   = 193.9548

EPHEMERIS_TYPE = 0
CLASSIFICATION_TYPE = U
NORAD_CAT_ID   = 23087
ELEMENT_SET_NO = 999
REV_AT_EPOCH   = 63359
BSTAR          = -.59974929E-4
MEAN_MOTION_DOT = -.162E-5
MEAN_MOTION_DDOT = 0

CCSDS_OMM_VERS = 2.0
CREATION_DATE  = 
ORIGINATOR     = 

OBJECT_NAME    = SL-16 R/B
OBJECT_ID      = 1994-023B
CENTER_NAME    = EARTH
REF_FRAME      = TEME
TIME_SYSTEM    = UTC
MEAN_ELEMENT_THEORY = SGP/SGP4

EPOCH          = 2025-12-20T16:20:42.731232
MEAN_MOTION    = 14.15001404
ECCENTRICITY   = .0001833
INCLINATION    = 70.9989
RA_OF_ASC_NODE = 236.8094
ARG_OF_PERICENTER = 8.5818
MEAN_ANOMALY   = 351.5336

EPHEMERIS_TYPE = 0
CLASSIFICATION_TYPE = U
NORAD_CAT_ID   = 23088
ELEMENT_SET_NO = 999
REV_AT_EPOCH   = 63491
BSTAR          = -.9395E-4
MEAN_MOTION_DOT = -.23E-5
MEAN_MOTION_DDOT = 0

CCSDS_OMM_VERS = 2.0
CREATION_DATE  = 
ORIGINATOR     = 

OBJECT_NAME    = SL-16 R/B
OBJECT_ID      = 1994-074B
CENTER_NAME    = EARTH
REF_FRAME      = TEME
TIME_SYSTEM    = UTC
MEAN_ELEMENT_THEORY = SGP/SGP4

EPOCH          = 2025-12-20T14:22:25.907808
MEAN_MOTION    = 14.79297758
ECCENTRICITY   = .00079351
INCLINATION    = 97.7193
RA_OF_ASC_NODE = 23.5909
ARG_OF_PERICENTER = 114.1966
MEAN_ANOMALY   = 0.3935

EPHEMERIS_TYPE = 0
CLASSIFICATION_TYPE = U
NORAD_CAT_ID   = 23343
ELEMENT_SET_NO = 999
REV_AT_EPOCH   = 67555
BSTAR          = .49154037E-4
MEAN_MOTION_DOT = .316E-5
MEAN_MOTION_DDOT = 0

CCSDS_OMM_VERS = 2.0
CREATION_DATE  = 
ORIGINATOR     = 

OBJECT_NAME    = SL-16 R/B
OBJECT_ID      = 1994-077B
CENTER_NAME    = EARTH
REF_FRAME      = TEME
TIME_SYSTEM    = UTC
MEAN_ELEMENT_THEORY = SGP/SGP4

EPOCH          = 2025-12-20T11:33:21.052224
MEAN_MOTION    = 14.15552977
ECCENTRICITY   = .00049787
INCLINATION    = 70.9821
RA_OF_ASC_NODE = 159.1278
ARG_OF_PERICENTER = 280.0802
MEAN_ANOMALY   = 79.9759

EPHEMERIS_TYPE = 0
CLASSIFICATION_TYPE = U
NORAD_CAT_ID   = 23405
ELEMENT_SET_NO = 999
REV_AT_EPOCH   = 60502
BSTAR          = .6008483E-5
MEAN_MOTION_DOT = -.36E-6
MEAN_MOTION_DDOT = 0

CCSDS_OMM_VERS = 2.0
CREATION_DATE  = 
ORIGINATOR     = 

OBJECT_NAME    = ARIANE 40+ R/B
OBJECT_ID      = 1995-021B
CENTER_NAME    = EARTH
REF_FRAME      = TEME
TIME_SYSTEM    = UTC
MEAN_ELEMENT_THEORY = SGP/SGP4

EPOCH          = 2025-12-19T23:40:08.081760
MEAN_MOTION    = 14.39700550
ECCENTRICITY   = .0007128
INCLINATION    = 98.4643
RA_OF_ASC_NODE = 61.4875
ARG_OF_PERICENTER = 30.0378
MEAN_ANOMALY   = 143.5506

EPHEMERIS_TYPE = 0
CLASSIFICATION_TYPE = U
NORAD_CAT_ID   = 23561
ELEMENT_SET_NO = 999
REV_AT_EPOCH   = 60777
BSTAR          = .83887E-4
MEAN_MOTION_DOT = .219E-5
MEAN_MOTION_DDOT = 0

CCSDS_OMM_VERS = 2.0
CREATION_DATE  = 
ORIGINATOR     = 

OBJECT_NAME    = SL-16 R/B
OBJECT_ID      = 1995-058B
CENTER_NAME    = EARTH
REF_FRAME      = TEME
TIME_SYSTEM    = UTC
MEAN_ELEMENT_THEORY = SGP/SGP4

EPOCH          = 2025-12-20T06:32:28.895424
MEAN_MOTION    = 14.15482952
ECCENTRICITY   = .00148746
INCLINATION    = 71.0221
RA_OF_ASC_NODE = 346.9893
ARG_OF_PERICENTER = 245.6082
MEAN_ANOMALY   = 114.3489

EPHEMERIS_TYPE = 0
CLASSIFICATION_TYPE = U
NORAD_CAT_ID   = 23705
ELEMENT_SET_NO = 999
REV_AT_EPOCH   = 55661
BSTAR          = -.99670742E-4
MEAN_MOTION_DOT = -.243E-5
MEAN_MOTION_DDOT = 0

CCSDS_OMM_VERS = 2.0
CREATION_DATE  = 
ORIGINATOR     = 

OBJECT_NAME    = SL-16 R/B
OBJECT_ID      = 1996-051B
CENTER_NAME    = EARTH
REF_FRAME      = TEME
TIME_SYSTEM    = UTC
MEAN_ELEMENT_THEORY = SGP/SGP4

EPOCH          = 2025-12-20T10:05:48.261408
MEAN_MOTION    = 14.12397280
ECCENTRICITY   = .00194739
INCLINATION    = 70.7595
RA_OF_ASC_NODE = 343.0253
ARG_OF_PERICENTER = 251.9483
MEAN_ANOMALY   = 107.9516

EPHEMERIS_TYPE = 0
CLASSIFICATION_TYPE = U
NORAD_CAT_ID   = 24298
ELEMENT_SET_NO = 999
REV_AT_EPOCH   = 51045
BSTAR          = .1194244E-5
MEAN_MOTION_DOT = -.47E-6
MEAN_MOTION_DDOT = 0

CCSDS_OMM_VERS = 2.0
CREATION_DATE  = 
ORIGINATOR     = 

OBJECT_NAME    = ORBVIEW 2 (SEASTAR)
OBJECT_ID      = 1997-037A
CENTER_NAME    = EARTH
REF_FRAME      = TEME
TIME_SYSTEM    = UTC
MEAN_ELEMENT_THEORY = SGP/SGP4

EPOCH          = 2025-12-20T10:38:39.973344
MEAN_MOTION    = 14.35422194
ECCENTRICITY   = .00013595
INCLINATION    = 98.8461
RA_OF_ASC_NODE = 151.7121
ARG_OF_PERICENTER = 310.1600
MEAN_ANOMALY   = 49.9466

EPHEMERIS_TYPE = 0
CLASSIFICATION_TYPE = U
NORAD_CAT_ID   = 24883
ELEMENT_SET_NO = 999
REV_AT_EPOCH   = 49710
BSTAR          = .82333964E-4
MEAN_MOTION_DOT = .19E-5
MEAN_MOTION_DDOT = 0

